[
    {
        "CCSDS_OMM_VERS": "3.0",
        "COMMENT": "GENERATED VIA SPACE-TRACK.ORG API",
        "CREATION_DATE": "2025-04-14T03:05:54",
        "ORIGINATOR": "18 SPCS",
        "OBJECT_NAME": "BEIDOU 3M25",
        "OBJECT_ID": "2024-168B",
        "CENTER_NAME": "EARTH",
        "REF_FRAME": "TEME",
        "TIME_SYSTEM": "UTC",
        "MEAN_ELEMENT_THEORY": "SGP4",
        "EPOCH": "2025-04-13T19:51:34.572672",
        "MEAN_MOTION": "1.86230394",
        "ECCENTRICITY": "0.00038300",
        "INCLINATION": "54.8480",
        "RA_OF_ASC_NODE": "317.1195",
        "ARG_OF_PERICENTER": "310.1566",
        "MEAN_ANOMALY": "5.0039",
        "EPHEMERIS_TYPE": "0",
        "CLASSIFICATION_TYPE": "U",
        "NORAD_CAT_ID": "61186",
        "ELEMENT_SET_NO": "999",
        "REV_AT_EPOCH": "378",
        "BSTAR": "0.00000000000000",
        "MEAN_MOTION_DOT": "-0.00000068",
        "MEAN_MOTION_DDOT": "0.0000000000000",
        "SEMIMAJOR_AXIS": "27906.249",
        "PERIOD": "773.236",
        "APOAPSIS": "21538.802",
        "PERIAPSIS": "21517.426",
        "OBJECT_TYPE": "PAYLOAD",
        "RCS_SIZE": null,
        "COUNTRY_CODE": "PRC",
        "LAUNCH_DATE": "2024-09-19",
        "SITE": "XSC",
        "DECAY_DATE": null,
        "FILE": "4701263",
        "GP_ID": "285549562",
        "TLE_LINE0": "0 BEIDOU 3M25",
        "TLE_LINE1": "1 61186U 24168B   25103.82748348 -.00000068  00000-0  00000-0 0  9993",
        "TLE_LINE2": "2 61186  54.8480 317.1195 0003830 310.1566   5.0039  1.86230394  3787"
    }
]